SL-14 R/B               
1 16792U 86046B   25333.04037965  .00000546  00000+0  60299-4 0  9993
2 16792  82.4815 175.2517 0022632 197.2418 162.8032 14.85462667111464
SL-14 R/B               
1 16882U 86055B   25333.18385819  .00000570  00000+0  63156-4 0  9994
2 16882  82.5216 221.1090 0017773 307.9861 167.0784 14.85509663104448
AJISAI (EGS)            
1 16908U 86061A   25333.24628904 -.00000104  00000+0 -46721-4 0  9996
2 16908  50.0112  42.2081 0011249  32.0284  14.1314 12.44514104455495
COSMOS 1812             
1 17295U 87003A   25333.31490949  .00075088  00000+0  56219-3 0  9990
2 17295  82.4872 306.5153 0006887 105.0324 255.1701 15.72366428128549
SL-14 R/B               
1 17567U 87024B   25333.11028376  .00000511  00000+0  55657-4 0  9999
2 17567  82.5283 187.2574 0017032 231.1343 128.8355 14.86003285 73199
COSMOS 1833             
1 17589U 87027A   25333.26744999 -.00000017  00000+0  16412-4 0  9996
2 17589  70.9123 177.0987 0021965 350.7249   9.3463 14.13017997996120
SL-16 R/B               
1 17590U 87027B   25332.82659475  .00000261  00000+0  15312-3 0  9990
2 17590  71.0010 129.0349 0007341 274.1108  85.9176 14.17150417  1052
SL-14 R/B               
1 17912U 87038B   25333.25572310  .00000504  00000+0  55727-4 0  9995
2 17912  82.5029  31.4003 0020455 133.6704 226.6212 14.85241569 64320
COSMOS 1844             
1 17973U 87041A   25333.19667020 -.00000123  00000+0 -38831-4 0  9998
2 17973  70.8994 246.1345 0030624 178.3812 181.7415 14.14528208989374
SL-14 R/B               
1 18153U 87055B   25333.31733780  .00000578  00000+0  64033-4 0  9990
2 18153  82.4997  83.6369 0020345 349.6302  10.4491 14.85498455 55030
COSMOS 1867             
1 18187U 87060A   25333.18927344 -.00000019  00000+0  30470-4 0  9998
2 18187  65.0100 228.1487 0013615 269.7699  90.1826 14.31482935  5556
COSMOS 1892             
1 18421U 87088A   25333.31481666  .01562729 -12074-5  68045-3 0  9996
2 18421  82.4599  58.7032 0005448 265.9388  94.1279 16.22566508 89170
