CCSDS_OMM_VERS = 2.0
CREATION_DATE  = 
ORIGINATOR     = 

OBJECT_NAME    = SL-14 R/B
OBJECT_ID      = 1986-046B
CENTER_NAME    = EARTH
REF_FRAME      = TEME
TIME_SYSTEM    = UTC
MEAN_ELEMENT_THEORY = SGP/SGP4

EPOCH          = 2025-11-29T00:58:08.801760
MEAN_MOTION    = 14.85462667
ECCENTRICITY   = .00226327
INCLINATION    = 82.4815
RA_OF_ASC_NODE = 175.2517
ARG_OF_PERICENTER = 197.2418
MEAN_ANOMALY   = 162.8032

EPHEMERIS_TYPE = 0
CLASSIFICATION_TYPE = U
NORAD_CAT_ID   = 16792
ELEMENT_SET_NO = 999
REV_AT_EPOCH   = 11146
BSTAR          = .60298744E-4
MEAN_MOTION_DOT = .546E-5
MEAN_MOTION_DDOT = 0

CCSDS_OMM_VERS = 2.0
CREATION_DATE  = 
ORIGINATOR     = 

OBJECT_NAME    = SL-14 R/B
OBJECT_ID      = 1986-055B
CENTER_NAME    = EARTH
REF_FRAME      = TEME
TIME_SYSTEM    = UTC
MEAN_ELEMENT_THEORY = SGP/SGP4

EPOCH          = 2025-11-29T04:24:45.347616
MEAN_MOTION    = 14.85509663
ECCENTRICITY   = .00177736
INCLINATION    = 82.5216
RA_OF_ASC_NODE = 221.1090
ARG_OF_PERICENTER = 307.9861
MEAN_ANOMALY   = 167.0784

EPHEMERIS_TYPE = 0
CLASSIFICATION_TYPE = U
NORAD_CAT_ID   = 16882
ELEMENT_SET_NO = 999
REV_AT_EPOCH   = 10444
BSTAR          = .63155985E-4
MEAN_MOTION_DOT = .57E-5
MEAN_MOTION_DDOT = 0

CCSDS_OMM_VERS = 2.0
CREATION_DATE  = 
ORIGINATOR     = 

OBJECT_NAME    = AJISAI (EGS)
OBJECT_ID      = 1986-061A
CENTER_NAME    = EARTH
REF_FRAME      = TEME
TIME_SYSTEM    = UTC
MEAN_ELEMENT_THEORY = SGP/SGP4

EPOCH          = 2025-11-29T05:54:39.373056
MEAN_MOTION    = 12.44514104
ECCENTRICITY   = .00112492
INCLINATION    = 50.0112
RA_OF_ASC_NODE = 42.2081
ARG_OF_PERICENTER = 32.0284
MEAN_ANOMALY   = 14.1314

EPHEMERIS_TYPE = 0
CLASSIFICATION_TYPE = U
NORAD_CAT_ID   = 16908
ELEMENT_SET_NO = 999
REV_AT_EPOCH   = 45549
BSTAR          = -.4672107E-4
MEAN_MOTION_DOT = -.104E-5
MEAN_MOTION_DDOT = 0

CCSDS_OMM_VERS = 2.0
CREATION_DATE  = 
ORIGINATOR     = 

OBJECT_NAME    = COSMOS 1812
OBJECT_ID      = 1987-003A
CENTER_NAME    = EARTH
REF_FRAME      = TEME
TIME_SYSTEM    = UTC
MEAN_ELEMENT_THEORY = SGP/SGP4

EPOCH          = 2025-11-29T07:33:28.179936
MEAN_MOTION    = 15.72366428
ECCENTRICITY   = .00068876
INCLINATION    = 82.4872
RA_OF_ASC_NODE = 306.5153
ARG_OF_PERICENTER = 105.0324
MEAN_ANOMALY   = 255.1701

EPHEMERIS_TYPE = 0
CLASSIFICATION_TYPE = U
NORAD_CAT_ID   = 17295
ELEMENT_SET_NO = 999
REV_AT_EPOCH   = 12854
BSTAR          = .56219429E-3
MEAN_MOTION_DOT = .75088E-3
MEAN_MOTION_DDOT = 0

CCSDS_OMM_VERS = 2.0
CREATION_DATE  = 
ORIGINATOR     = 

OBJECT_NAME    = SL-14 R/B
OBJECT_ID      = 1987-024B
CENTER_NAME    = EARTH
REF_FRAME      = TEME
TIME_SYSTEM    = UTC
MEAN_ELEMENT_THEORY = SGP/SGP4

EPOCH          = 2025-11-29T02:38:48.516864
MEAN_MOTION    = 14.86003285
ECCENTRICITY   = .0017032
INCLINATION    = 82.5283
RA_OF_ASC_NODE = 187.2574
ARG_OF_PERICENTER = 231.1343
MEAN_ANOMALY   = 128.8355

EPHEMERIS_TYPE = 0
CLASSIFICATION_TYPE = U
NORAD_CAT_ID   = 17567
ELEMENT_SET_NO = 999
REV_AT_EPOCH   = 7319
BSTAR          = .55656668E-4
MEAN_MOTION_DOT = .511E-5
MEAN_MOTION_DDOT = 0

CCSDS_OMM_VERS = 2.0
CREATION_DATE  = 
ORIGINATOR     = 

OBJECT_NAME    = COSMOS 1833
OBJECT_ID      = 1987-027A
CENTER_NAME    = EARTH
REF_FRAME      = TEME
TIME_SYSTEM    = UTC
MEAN_ELEMENT_THEORY = SGP/SGP4

EPOCH          = 2025-11-29T06:25:07.679136
MEAN_MOTION    = 14.13017997
ECCENTRICITY   = .00219654
INCLINATION    = 70.9123
RA_OF_ASC_NODE = 177.0987
ARG_OF_PERICENTER = 350.7249
MEAN_ANOMALY   = 9.3463

EPHEMERIS_TYPE = 0
CLASSIFICATION_TYPE = U
NORAD_CAT_ID   = 17589
ELEMENT_SET_NO = 999
REV_AT_EPOCH   = 99612
BSTAR          = .16412291E-4
MEAN_MOTION_DOT = -.17E-6
MEAN_MOTION_DDOT = 0

CCSDS_OMM_VERS = 2.0
CREATION_DATE  = 
ORIGINATOR     = 

OBJECT_NAME    = SL-16 R/B
OBJECT_ID      = 1987-027B
CENTER_NAME    = EARTH
REF_FRAME      = TEME
TIME_SYSTEM    = UTC
MEAN_ELEMENT_THEORY = SGP/SGP4

EPOCH          = 2025-11-28T19:50:17.786400
MEAN_MOTION    = 14.17150417
ECCENTRICITY   = .00073414
INCLINATION    = 71.0010
RA_OF_ASC_NODE = 129.0349
ARG_OF_PERICENTER = 274.1108
MEAN_ANOMALY   = 85.9176

EPHEMERIS_TYPE = 0
CLASSIFICATION_TYPE = U
NORAD_CAT_ID   = 17590
ELEMENT_SET_NO = 999
REV_AT_EPOCH   = 105
BSTAR          = .15311621E-3
MEAN_MOTION_DOT = .261E-5
MEAN_MOTION_DDOT = 0

CCSDS_OMM_VERS = 2.0
CREATION_DATE  = 
ORIGINATOR     = 

OBJECT_NAME    = SL-14 R/B
OBJECT_ID      = 1987-038B
CENTER_NAME    = EARTH
REF_FRAME      = TEME
TIME_SYSTEM    = UTC
MEAN_ELEMENT_THEORY = SGP/SGP4

EPOCH          = 2025-11-29T06:08:14.475840
MEAN_MOTION    = 14.85241569
ECCENTRICITY   = .00204559
INCLINATION    = 82.5029
RA_OF_ASC_NODE = 31.4003
ARG_OF_PERICENTER = 133.6704
MEAN_ANOMALY   = 226.6212

EPHEMERIS_TYPE = 0
CLASSIFICATION_TYPE = U
NORAD_CAT_ID   = 17912
ELEMENT_SET_NO = 999
REV_AT_EPOCH   = 6432
BSTAR          = .55726956E-4
MEAN_MOTION_DOT = .504E-5
MEAN_MOTION_DDOT = 0

CCSDS_OMM_VERS = 2.0
CREATION_DATE  = 
ORIGINATOR     = 

OBJECT_NAME    = COSMOS 1844
OBJECT_ID      = 1987-041A
CENTER_NAME    = EARTH
REF_FRAME      = TEME
TIME_SYSTEM    = UTC
MEAN_ELEMENT_THEORY = SGP/SGP4

EPOCH          = 2025-11-29T04:43:12.305280
MEAN_MOTION    = 14.14528208
ECCENTRICITY   = .00306243
INCLINATION    = 70.8994
RA_OF_ASC_NODE = 246.1345
ARG_OF_PERICENTER = 178.3812
MEAN_ANOMALY   = 181.7415

EPHEMERIS_TYPE = 0
CLASSIFICATION_TYPE = U
NORAD_CAT_ID   = 17973
ELEMENT_SET_NO = 999
REV_AT_EPOCH   = 98937
BSTAR          = -.38831155E-4
MEAN_MOTION_DOT = -.123E-5
MEAN_MOTION_DDOT = 0

CCSDS_OMM_VERS = 2.0
CREATION_DATE  = 
ORIGINATOR     = 

OBJECT_NAME    = SL-14 R/B
OBJECT_ID      = 1987-055B
CENTER_NAME    = EARTH
REF_FRAME      = TEME
TIME_SYSTEM    = UTC
MEAN_ELEMENT_THEORY = SGP/SGP4

EPOCH          = 2025-11-29T07:36:57.985920
MEAN_MOTION    = 14.85498455
ECCENTRICITY   = .00203457
INCLINATION    = 82.4997
RA_OF_ASC_NODE = 83.6369
ARG_OF_PERICENTER = 349.6302
MEAN_ANOMALY   = 10.4491

EPHEMERIS_TYPE = 0
CLASSIFICATION_TYPE = U
NORAD_CAT_ID   = 18153
ELEMENT_SET_NO = 999
REV_AT_EPOCH   = 5503
BSTAR          = .64033087E-4
MEAN_MOTION_DOT = .578E-5
MEAN_MOTION_DDOT = 0

CCSDS_OMM_VERS = 2.0
CREATION_DATE  = 
ORIGINATOR     = 

OBJECT_NAME    = COSMOS 1867
OBJECT_ID      = 1987-060A
CENTER_NAME    = EARTH
REF_FRAME      = TEME
TIME_SYSTEM    = UTC
MEAN_ELEMENT_THEORY = SGP/SGP4

EPOCH          = 2025-11-29T04:32:33.225216
MEAN_MOTION    = 14.31482935
ECCENTRICITY   = .0013615
INCLINATION    = 65.0100
RA_OF_ASC_NODE = 228.1487
ARG_OF_PERICENTER = 269.7699
MEAN_ANOMALY   = 90.1826

EPHEMERIS_TYPE = 0
CLASSIFICATION_TYPE = U
NORAD_CAT_ID   = 18187
ELEMENT_SET_NO = 999
REV_AT_EPOCH   = 555
BSTAR          = .30470451E-4
MEAN_MOTION_DOT = -.19E-6
MEAN_MOTION_DDOT = 0

CCSDS_OMM_VERS = 2.0
CREATION_DATE  = 
ORIGINATOR     = 

OBJECT_NAME    = COSMOS 1892
OBJECT_ID      = 1987-088A
CENTER_NAME    = EARTH
REF_FRAME      = TEME
TIME_SYSTEM    = UTC
MEAN_ELEMENT_THEORY = SGP/SGP4

EPOCH          = 2025-11-29T07:33:20.159424
MEAN_MOTION    = 16.22566508
ECCENTRICITY   = .0005448
INCLINATION    = 82.4599
RA_OF_ASC_NODE = 58.7032
ARG_OF_PERICENTER = 265.9388
MEAN_ANOMALY   = 94.1279

EPHEMERIS_TYPE = 0
CLASSIFICATION_TYPE = U
NORAD_CAT_ID   = 18421
ELEMENT_SET_NO = 999
REV_AT_EPOCH   = 8917
BSTAR          = .68045E-3
MEAN_MOTION_DOT = .1562729E-1
MEAN_MOTION_DDOT = -.12074E-5

